OPS 7218 (TRANSIT 16)   
1 02807U 67048A   26061.82907607  .00000128  00000+0  18272-3 0  9999
2 02807  89.6810 351.3886 0018260 242.9503 177.9136 13.50742256893578
OPS 4947 (TRANSIT 17)   
1 02965U 67092A   26061.95130060  .00000160  00000+0  21984-3 0  9998
2 02965  89.2554  18.3236 0048060   5.5154  61.9325 13.53475886881821
OPS 7034 (TRANSIT 18)   
1 03133U 68012A   26062.11672598  .00000156  00000+0  22279-3 0  9998
2 03133  90.0216 273.8551 0072259 298.5062 177.9649 13.51587611580046
NNSS 19 (TRANSIT 19)    
1 04507U 70067A   26061.96590596  .00000137  00000+0  17704-3 0  9992
2 04507  90.0048 234.5768 0173370  60.8785 300.9598 13.51336506733054
NNSS 20 (TRANSIT 20)    
1 06909U 73081A   26062.08740456  .00000225  00000+0  21932-3 0  9991
2 06909  89.8511 253.8322 0154029 196.6337 162.9743 13.71472051814623
TRANSAT                 
1 10457U 77106A   26062.04249979  .00000089  00000+0  12535-3 0  9993
2 10457  89.6395  75.7162 0024314 325.7487  88.0913 13.48956925378264
NOVA 1                  
1 12458U 81044A   26062.10861836  .00000069  00000+0  14290-3 0  9999
2 12458  89.8426  90.2156 0012610 238.5852 181.4419 13.23286713162491
NOVA 3                  
1 15362U 84110A   26062.07262123  .00000097  00000+0  20936-3 0  9998
2 15362  90.1128  81.4441 0033383 107.0987 306.9930 13.23055795997616
OSCAR 30                
1 15935U 85066A   26062.17440713  .00000091  00000+0  14958-3 0  9990
2 15935  90.1554 101.1332 0166713 216.2172 212.6802 13.36093809975278
OSCAR 24                
1 15936U 85066B   26062.16755612  .00000098  00000+0  16249-3 0  9999
2 15936  90.1691  93.6947 0167552 222.8108 207.3055 13.35951559977178
POLAR BEAR              
1 17070U 86088A   26061.87776259  .00000112  00000+0  10496-3 0  9997
2 17070  89.6249 180.5863 0037745 236.9610 243.2772 13.75268612970801
OSCAR 27                
1 18361U 87080A   26062.04401063  .00000115  00000+0  17656-3 0  9990
2 18361  90.3648  82.2386 0103581 355.7424   4.2831 13.44923233886361
OSCAR 29                
1 18362U 87080B   26061.64702566  .00000093  00000+0  14076-3 0  9996
2 18362  90.3657  82.6894 0106013  20.0617  99.3409 13.44463285885832
OSCAR 23                
1 19070U 88033A   26061.93015889  .00000089  00000+0  16679-3 0  9995
2 19070  90.3281  18.8890 0188265 317.9119 102.8925 13.27802500833174
OSCAR 32                
1 19071U 88033B   26061.89528052  .00000065  00000+0  11846-3 0  9997
2 19071  90.3286  19.0242 0186341 304.7190 107.6220 13.27967233833299
NOVA 2                  
1 19223U 88052A   26062.00131927  .00000103  00000+0  22340-3 0  9996
2 19223  89.9781  78.1362 0031363 149.3608 238.6430 13.22946763820093
OSCAR 25                
1 19419U 88074A   26061.93426691  .00000115  00000+0  18105-3 0  9990
2 19419  90.0408  20.5139 0096955  18.6600  43.1365 13.42640172837169
OSCAR 31                
1 19420U 88074B   26061.96251498  .00000086  00000+0  13223-3 0  9999
2 19420  90.0424  20.8771 0094951  12.8837  57.3321 13.42596575837274
